{
  "norad_id": 36097,
  "name": "INTELSAT 14 (IS-14)",
  "history": [
    {
      "epoch": "2026-03-28T19:42:20.060064",
      "apogee_km": 35796.98922594758,
      "perigee_km": 35776.46421358607,
      "latitude_deg": 0.011336868376319725,
      "longitude_deg": 28.522288959939033,
      "semi_major_axis_km": 42164.86371976683,
      "eccentricity": 0.00024339,
      "inclination_deg": 0.0197,
      "raan_deg": 98.9011,
      "arg_perigee_deg": 267.6388,
      "mean_anomaly_deg": 70.2778,
      "mean_motion_rev_day": 1.00271315
    },
    {
      "epoch": "2026-03-29T04:15:45.245664",
      "apogee_km": 35796.994663764766,
      "perigee_km": 35776.494098437266,
      "latitude_deg": 0.0007693913594746506,
      "longitude_deg": 62.75027295993641,
      "semi_major_axis_km": 42164.88138110102,
      "eccentricity": 0.0002431,
      "inclination_deg": 0.0222,
      "raan_deg": 94.987,
      "arg_perigee_deg": 272.7638,
      "mean_anomaly_deg": 197.7731,
      "mean_motion_rev_day": 1.00271252
    }
  ]
}